[{"OBJECT_NAME":"STARLINK-5553","OBJECT_ID":"2023-058S","EPOCH":"2026-03-09T22:50:44.154816","MEAN_MOTION":15.05644171,"ECCENTRICITY":0.00018229,"INCLINATION":97.604,"RA_OF_ASC_NODE":71.439,"ARG_OF_PERICENTER":87.1222,"MEAN_ANOMALY":273.0214,"EPHEMERIS_TYPE":0,"CLASSIFICATION_TYPE":"U","NORAD_CAT_ID":56333,"ELEMENT_SET_NO":999,"REV_AT_EPOCH":15823,"BSTAR":1.8477074e-5,"MEAN_MOTION_DOT":2.06e-6,"MEAN_MOTION_DDOT":0},{"OBJECT_NAME":"BLACK ARROW R\/B","OBJECT_ID":"1971-093B","EPOCH":"2026-03-09T22:36:05.554944","MEAN_MOTION":14.00366378,"ECCENTRICITY":0.05041089,"INCLINATION":82.0373,"RA_OF_ASC_NODE":52.5877,"ARG_OF_PERICENTER":268.267,"MEAN_ANOMALY":86.0721,"EPHEMERIS_TYPE":0,"CLASSIFICATION_TYPE":"U","NORAD_CAT_ID":5581,"ELEMENT_SET_NO":999,"REV_AT_EPOCH":73271,"BSTAR":0.00039679437,"MEAN_MOTION_DOT":1.821e-5,"MEAN_MOTION_DDOT":0}]
